H1 CPF 01  gfz 2022 03 11 13  5702 terrasarx 
H2 0702601  6201 31698    2022 03 11 12 59 42 2022 03 16 00 00 42   120 1 1  0 0 0
H9
10 0 59651   6462.000000  0   -2601815.590  -3682661.685   5197880.166
10 0 59651   6582.000000  0   -2362663.166  -2974504.967   5736271.246
10 0 59651   6702.000000  0   -2069444.671  -2219061.833   6173776.260
10 0 59651   6822.000000  0   -1726590.502  -1430446.530   6502740.133
10 0 59651   6942.000000  0   -1339642.099   -623254.149   6717415.552
10 0 59651   7062.000000  0    -915160.737    187712.285   6814055.654
10 0 59651   7182.000000  0    -460616.595    987711.891   6790974.769
10 0 59651   7302.000000  0      15742.662   1762333.381   6648576.848
10 0 59651   7422.000000  0     505041.429   2497754.559   6389348.846
10 0 59651   7542.000000  0     997940.956   3180988.744   6017819.461
10 0 59651   7662.000000  0    1484816.345   3800115.477   5540485.197
10 0 59651   7782.000000  0    1955943.428   4344492.436   4965702.794
10 0 59651   7902.000000  0    2401693.242   4804944.492   4303548.975
10 0 59651   8022.000000  0    2812729.243   5173924.520   3565647.632
10 0 59651   8142.000000  0    3180202.903   5445644.001   2764970.221
10 0 59651   8262.000000  0    3495946.122   5616173.640   1915607.382
10 0 59651   8382.000000  0    3752651.676   5683503.060   1032515.102
10 0 59651   8502.000000  0    3944037.541   5647563.090    131245.651
10 0 59651   8622.000000  0    4064993.266   5510207.945   -772335.168
10 0 59651   8742.000000  0    4111702.713   5275158.188  -1662335.330
10 0 59651   8862.000000  0    4081741.192   4947907.177  -2523123.912
10 0 59651   8982.000000  0    3974143.453   4535592.489  -3339612.184
10 0 59651   9102.000000  0    3789441.036   4046835.712  -4097521.740
10 0 59651   9222.000000  0    3529669.740   3491556.246  -4783633.061
10 0 59651   9342.000000  0    3198347.762   2880764.269  -5386012.484
10 0 59651   9462.000000  0    2800423.853   2226336.877  -5894212.478
10 0 59651   9582.000000  0    2342198.730   1540783.805  -6299442.864
10 0 59651   9702.000000  0    1831221.012    837007.161  -6594711.047
10 0 59651   9822.000000  0    1276161.631    128061.021  -6774930.645
10 0 59651   9942.000000  0     686667.438   -573086.211  -6837001.518
10 0 59651  10062.000000  0      73194.708  -1253784.529  -6779856.539
10 0 59651  10182.000000  0    -553171.637  -1901924.024  -6604476.482
10 0 59651  10302.000000  0   -1180912.908  -2506144.567  -6313876.255
10 0 59651  10422.000000  0   -1798283.761  -3056032.361  -5913058.947
10 0 59651  10542.000000  0   -2393526.753  -3542298.015  -5408938.224
10 0 59651  10662.000000  0   -2955093.120  -3956935.519  -4810231.431
10 0 59651  10782.000000  0   -3471867.109  -4293359.476  -4127320.360
10 0 59651  10902.000000  0   -3933387.320  -4546515.803  -3372080.831
10 0 59651  11022.000000  0   -4330061.428  -4712964.487  -2557684.274
10 0 59651  11142.000000  0   -4653369.647  -4790931.632  -1698372.368
10 0 59651  11262.000000  0   -4896051.379  -4780328.957   -809208.717
10 0 59651  11382.000000  0   -5052270.078  -4682739.794     94188.091
10 0 59651  11502.000000  0   -5117752.004  -4501371.648    995925.146
10 0 59651  11622.000000  0   -5089894.196  -4240974.863   1880124.115
10 0 59651  11742.000000  0   -4967838.115  -3907729.181   2731210.370
10 0 59651  11862.000000  0   -4752507.811  -3509101.888   3534195.491
10 0 59651  11982.000000  0   -4446612.021  -3053681.684   4274947.683
10 0 59651  12102.000000  0   -4054609.259  -2550991.526   4940444.758
10 0 59651  12222.000000  0   -3582637.947  -2011286.466   5519002.333
10 0 59651  12342.000000  0   -3038415.348  -1445342.592   6000476.160
10 0 59651  12462.000000  0   -2431105.890   -864239.859   6376437.091
10 0 59651  12582.000000  0   -1771160.673   -279142.379   6640313.572
10 0 59651  12702.000000  0   -1070132.644    298916.704   6787498.845
10 0 59651  12822.000000  0    -340473.175    859241.364   6815425.593
10 0 59651  12942.000000  0     404688.844   1391669.834   6723608.144
10 0 59651  13062.000000  0    1151782.605   1886758.784   6513650.644
10 0 59651  13182.000000  0    1887041.916   2335950.941   6189220.052
10 0 59651  13302.000000  0    2596757.929   2731723.131   5755986.198
10 0 59651  13422.000000  0    3267535.809   3067714.363   5221529.500
10 0 59651  13542.000000  0    3886551.060   3338831.216   4595213.868
10 0 59651  13662.000000  0    4441797.322   3541327.362   3888027.330
10 0 59651  13782.000000  0    4922326.237   3672857.312   3112395.600
10 0 59651  13902.000000  0    5318471.468   3732502.083   2281962.397
10 0 59651  14022.000000  0    5622048.368   3720763.904   1411347.355
10 0 59651  14142.000000  0    5826527.743   3639532.827    515883.463
10 0 59651  14262.000000  0    5927177.578   3492023.914   -388661.186
10 0 59651  14382.000000  0    5921168.576   3282686.828  -1286369.821
10 0 59651  14502.000000  0    5807641.546   3017090.418  -2161465.566
10 0 59651  14622.000000  0    5587734.325   2701785.990  -2998595.334
10 0 59651  14742.000000  0    5264569.470   2344152.706  -3783103.561
10 0 59651  14862.000000  0    4843203.518   1952228.614  -4501290.736
10 0 59651  14982.000000  0    4330536.633   1534531.504  -5140650.944
10 0 59651  15102.000000  0    3735189.003   1099875.418  -5690082.011
10 0 59651  15222.000000  0    3067347.366    657187.228  -6140069.333
10 0 59651  15342.000000  0    2338583.478    215326.123  -6482839.871
10 0 59651  15462.000000  0    1561650.336   -217089.603  -6712484.399
10 0 59651  15582.000000  0     750260.189   -631846.401  -6825050.078
10 0 59651  15702.000000  0     -81155.609  -1021287.609  -6818601.392
10 0 59651  15822.000000  0    -917697.589  -1378450.459  -6693248.142
10 0 59651  15942.000000  0   -1744258.335  -1697187.194  -6451144.604
10 0 59651  16062.000000  0   -2545789.561  -1972269.231  -6096456.498
10 0 59651  16182.000000  0   -3307569.958  -2199471.795  -5635296.305
10 0 59651  16302.000000  0   -4015472.578  -2375639.556  -5075629.885
10 0 59651  16422.000000  0   -4656228.924  -2498731.389  -4427150.583
10 0 59651  16542.000000  0   -5217681.916  -2567842.590  -3701121.921
10 0 59651  16662.000000  0   -5689024.063  -2583204.392  -2910191.185
10 0 59651  16782.000000  0   -6061015.263  -2546159.759  -2068174.765
10 0 59651  16902.000000  0   -6326174.075  -2459116.054  -1189819.101
10 0 59651  17022.000000  0   -6478937.971  -2325475.101   -290540.800
10 0 59651  17142.000000  0   -6515787.197  -2149541.914    613848.907
10 0 59651  17262.000000  0   -6435329.309  -1936413.991   1507429.892
10 0 59651  17382.000000  0   -6238340.315  -1691854.075   2374463.125
10 0 59651  17502.000000  0   -5927760.866  -1422149.845   3199676.680
10 0 59651  17622.000000  0   -5508650.216  -1133963.775   3968542.255
10 0 59651  17742.000000  0   -4988095.745   -834176.956   4667537.253
10 0 59651  17862.000000  0   -4375082.833   -529731.607   5284382.696
10 0 59651  17982.000000  0   -3680331.697   -227476.238   5808257.313
10 0 59651  18102.000000  0   -2916101.051     65984.165   6229984.720
10 0 59651  18222.000000  0   -2095963.604    344428.778   6542188.577
10 0 59651  18342.000000  0   -1234559.408    602148.630   6739415.426
10 0 59651  18462.000000  0    -347331.525    834061.142   6818223.961
10 0 59651  18582.000000  0     549751.036   1035808.701   6777240.571
10 0 59651  18702.000000  0    1440479.626   1203839.962   6617181.702
10 0 59651  18822.000000  0    2308697.827   1335472.753   6340842.088
10 0 59651  18942.000000  0    3138593.795   1428936.881   5953049.336
10 0 59651  19062.000000  0    3914990.291   1483396.691   5460585.019
10 0 59651  19182.000000  0    4623625.078   1498952.832   4872071.135
10 0 59651  19302.000000  0    5251418.134   1476624.078   4197826.885
10 0 59651  19422.000000  0    5786723.554   1418308.633   3449692.637
10 0 59651  19542.000000  0    6219554.738   1326725.964   2640821.948
10 0 59651  19662.000000  0    6541779.681   1205338.823   1785450.246
10 0 59651  19782.000000  0    6747283.016   1058259.423    898640.171
10 0 59651  19902.000000  0    6832087.957    890140.664     -3990.326
10 0 59651  20022.000000  0    6794436.963    706055.361   -906551.436
10 0 59651  20142.000000  0    6634825.904    511366.459  -1793170.988
10 0 59651  20262.000000  0    6355992.707    311591.377  -2648280.886
10 0 59651  20382.000000  0    5962862.325    112264.595  -3456896.148
10 0 59651  20502.000000  0    5462448.872    -81198.040  -4204880.728
10 0 59651  20622.000000  0    4863716.945   -263629.926  -4879194.190
10 0 59651  20742.000000  0    4177407.863   -430235.727  -5468113.103
10 0 59651  20862.000000  0    3415837.274   -576702.691  -5961426.674
10 0 59651  20982.000000  0    2592666.359   -699299.666  -6350604.523
10 0 59651  21102.000000  0    1722651.617   -794960.444  -6628932.350
10 0 59651  21222.000000  0     821380.756   -861351.336  -6791616.494
10 0 59651  21342.000000  0     -95003.644   -896921.874  -6835858.599
10 0 59651  21462.000000  0   -1010087.756   -900936.883  -6760897.599
10 0 59651  21582.000000  0   -1907473.312   -873490.920  -6568021.858
10 0 59651  21702.000000  0   -2771065.324   -815503.849  -6260548.829
10 0 59651  21822.000000  0   -3585353.766   -728698.384  -5843773.239
10 0 59651  21942.000000  0   -4335689.053   -615559.753  -5324887.140
10 0 59651  22062.000000  0   -5008547.463   -479277.514  -4712866.705
10 0 59651  22182.000000  0   -5591779.192   -323671.073  -4018328.468
10 0 59651  22302.000000  0   -6074837.184   -153099.895  -3253356.080
10 0 59651  22422.000000  0   -6448979.502     27640.905  -2431296.991
10 0 59651  22542.000000  0   -6707440.780    213436.351  -1566534.059
10 0 59651  22662.000000  0   -6845568.434    398977.590   -674233.791
10 0 59651  22782.000000  0   -6860917.466    578893.375    229925.426
10 0 59651  22902.000000  0   -6753299.823    747884.889   1130035.278
99
